{
  "norad_id": 45572,
  "name": "STARLINK-1320",
  "history": [
    {
      "epoch": "2026-04-14T09:56:44.935872Z",
      "apogee_km": 346.330676209358,
      "perigee_km": 342.42597040896726,
      "latitude_deg": -3.979214394617159e-05,
      "longitude_deg": 176.84956427047098,
      "height_km": 345.86135167624474,
      "semi_major_axis_km": 6722.515323309162,
      "eccentricity": 0.00029042,
      "inclination_deg": 53.0461,
      "raan_deg": 168.628,
      "arg_perigee_deg": 107.3503,
      "mean_anomaly_deg": 252.7833,
      "mean_motion_rev_day": 15.75088863
    },
    {
      "epoch": "2026-04-15T10:18:36.794592Z",
      "apogee_km": 346.0166612615785,
      "perigee_km": 342.131223336929,
      "latitude_deg": -2.1332024616019813e-05,
      "longitude_deg": 165.32439125654545,
      "height_km": 345.6031231144505,
      "semi_major_axis_km": 6722.2109422992535,
      "eccentricity": 0.000289,
      "inclination_deg": 53.0457,
      "raan_deg": 163.5695,
      "arg_perigee_deg": 108.87,
      "mean_anomaly_deg": 251.2632,
      "mean_motion_rev_day": 15.75195844
    },
    {
      "epoch": "2026-04-16T10:40:22.664928Z",
      "apogee_km": 345.63952529600374,
      "perigee_km": 341.8927364908441,
      "latitude_deg": -2.66989809420114e-05,
      "longitude_deg": 153.82462057285744,
      "height_km": 345.25189435971083,
      "semi_major_axis_km": 6721.903130893424,
      "eccentricity": 0.0002787,
      "inclination_deg": 53.0453,
      "raan_deg": 158.5114,
      "arg_perigee_deg": 108.1884,
      "mean_anomaly_deg": 251.9438,
      "mean_motion_rev_day": 15.75304043
    },
    {
      "epoch": "2026-04-17T20:10:08.601312Z",
      "apogee_km": 345.22817695500635,
      "perigee_km": 341.4890089566452,
      "latitude_deg": 4.62511499737665e-06,
      "longitude_deg": 3.0508087519955684,
      "height_km": 344.87525258257415,
      "semi_major_axis_km": 6721.4955929558255,
      "eccentricity": 0.00027815,
      "inclination_deg": 53.0446,
      "raan_deg": 151.5546,
      "arg_perigee_deg": 109.2264,
      "mean_anomaly_deg": 250.9056,
      "mean_motion_rev_day": 15.75447316
    },
    {
      "epoch": "2026-04-19T19:21:41.465088Z",
      "apogee_km": 344.33568907162044,
      "perigee_km": 340.66622074824045,
      "latitude_deg": -4.703473867080849e-06,
      "longitude_deg": 3.4206429825169633,
      "height_km": 344.091331617371,
      "semi_major_axis_km": 6720.63795490993,
      "eccentricity": 0.000273,
      "inclination_deg": 53.0443,
      "raan_deg": 141.7495,
      "arg_perigee_deg": 112.062,
      "mean_anomaly_deg": 248.0689,
      "mean_motion_rev_day": 15.75748896
    },
    {
      "epoch": "2026-04-20T09:03:39.101760Z",
      "apogee_km": 344.1245812743409,
      "perigee_km": 340.45469069696173,
      "latitude_deg": 4.566169063889513e-05,
      "longitude_deg": 154.52131473686694,
      "height_km": 343.8901313705034,
      "semi_major_axis_km": 6720.426635985651,
      "eccentricity": 0.00027304,
      "inclination_deg": 53.044,
      "raan_deg": 138.9029,
      "arg_perigee_deg": 112.4008,
      "mean_anomaly_deg": 247.7301,
      "mean_motion_rev_day": 15.75823219
    },
    {
      "epoch": "2026-04-21T07:53:29.317920Z",
      "apogee_km": 343.63054458855095,
      "perigee_km": 340.0470502948074,
      "latitude_deg": -1.382212670033603e-05,
      "longitude_deg": 166.37901393272384,
      "height_km": 343.4845513776639,
      "semi_major_axis_km": 6719.975797441679,
      "eccentricity": 0.00026663,
      "inclination_deg": 53.0442,
      "raan_deg": 134.1575,
      "arg_perigee_deg": 114.5442,
      "mean_anomaly_deg": 245.5855,
      "mean_motion_rev_day": 15.75981803
    },
    {
      "epoch": "2026-04-22T08:14:29.779872Z",
      "apogee_km": 343.15345155354953,
      "perigee_km": 339.6080995848033,
      "latitude_deg": -3.231552179659037e-05,
      "longitude_deg": 155.0660484705421,
      "height_km": 343.0672281069118,
      "semi_major_axis_km": 6719.517775569176,
      "eccentricity": 0.00026381,
      "inclination_deg": 53.0449,
      "raan_deg": 129.0965,
      "arg_perigee_deg": 116.2758,
      "mean_anomaly_deg": 243.8532,
      "mean_motion_rev_day": 15.76142941
    },
    {
      "epoch": "2026-04-23T05:32:45.709440Z",
      "apogee_km": 342.74410960237674,
      "perigee_km": 339.2739394465507,
      "latitude_deg": -1.9597889965195674e-05,
      "longitude_deg": -169.80645886109744,
      "height_km": 342.50694629173967,
      "semi_major_axis_km": 6719.146024524463,
      "eccentricity": 0.00025823,
      "inclination_deg": 53.0458,
      "raan_deg": 124.6653,
      "arg_perigee_deg": 110.0958,
      "mean_anomaly_deg": 250.0339,
      "mean_motion_rev_day": 15.76273748
    },
    {
      "epoch": "2026-04-24T07:24:47.373696Z",
      "apogee_km": 342.29620633984905,
      "perigee_km": 338.72323001512177,
      "latitude_deg": -5.523269584228572e-05,
      "longitude_deg": 155.74635319796815,
      "height_km": 342.35113919046233,
      "semi_major_axis_km": 6718.646718177485,
      "eccentricity": 0.0002659,
      "inclination_deg": 53.0453,
      "raan_deg": 119.2874,
      "arg_perigee_deg": 121.7246,
      "mean_anomaly_deg": 238.4032,
      "mean_motion_rev_day": 15.76449466
    },
    {
      "epoch": "2026-04-25T16:53:01.307040Z",
      "apogee_km": 341.5674482716595,
      "perigee_km": 337.9706813645562,
      "latitude_deg": 5.540483123785182e-05,
      "longitude_deg": 5.34939358805936,
      "height_km": 341.7162429817994,
      "semi_major_axis_km": 6717.906064818108,
      "eccentricity": 0.0002677,
      "inclination_deg": 53.045,
      "raan_deg": 112.323,
      "arg_perigee_deg": 125.5259,
      "mean_anomaly_deg": 234.6011,
      "mean_motion_rev_day": 15.7671018
    },
    {
      "epoch": "2026-04-26T06:34:28.174080Z",
      "apogee_km": 341.2258201231043,
      "perigee_km": 337.59659752780317,
      "latitude_deg": -5.592663409079263e-05,
      "longitude_deg": 156.57610340801935,
      "height_km": 341.4228169354374,
      "semi_major_axis_km": 6717.548208825453,
      "eccentricity": 0.00027013,
      "inclination_deg": 53.045,
      "raan_deg": 109.474,
      "arg_perigee_deg": 127.6844,
      "mean_anomaly_deg": 232.442,
      "mean_motion_rev_day": 15.76836173
    },
    {
      "epoch": "2026-04-27T05:23:24.263232Z",
      "apogee_km": 340.64557374971264,
      "perigee_km": 336.99020689839745,
      "latitude_deg": -2.0796899315951493e-05,
      "longitude_deg": 168.65592288703925,
      "height_km": 340.91873755672617,
      "semi_major_axis_km": 6716.954890324055,
      "eccentricity": 0.0002721,
      "inclination_deg": 53.0447,
      "raan_deg": 104.7245,
      "arg_perigee_deg": 130.971,
      "mean_anomaly_deg": 229.1545,
      "mean_motion_rev_day": 15.77045104
    },
    {
      "epoch": "2026-04-28T05:43:24.672864Z",
      "apogee_km": 339.7259816227661,
      "perigee_km": 336.8177765781156,
      "latitude_deg": -3.0361389712291862e-05,
      "longitude_deg": 157.58647057474798,
      "height_km": 340.2478768847027,
      "semi_major_axis_km": 6716.408879100441,
      "eccentricity": 0.0002165,
      "inclination_deg": 53.0445,
      "raan_deg": 99.6561,
      "arg_perigee_deg": 137.5315,
      "mean_anomaly_deg": 222.5872,
      "mean_motion_rev_day": 15.77237417
    },
    {
      "epoch": "2026-04-29T07:34:27.621408Z",
      "apogee_km": 339.5374030950925,
      "perigee_km": 335.75520825300373,
      "latitude_deg": 1.108913782566774e-05,
      "longitude_deg": 123.37896119039686,
      "height_km": 340.0107746219511,
      "semi_major_axis_km": 6715.783305674048,
      "eccentricity": 0.00028159,
      "inclination_deg": 53.0446,
      "raan_deg": 94.2725,
      "arg_perigee_deg": 140.6073,
      "mean_anomaly_deg": 219.5152,
      "mean_motion_rev_day": 15.77457801
    },
    {
      "epoch": "2026-04-30T03:20:25.377504Z",
      "apogee_km": 339.1577064928015,
      "perigee_km": 335.2213163983224,
      "latitude_deg": -2.4442991827751555e-05,
      "longitude_deg": -178.0408782373452,
      "height_km": 339.68638524868754,
      "semi_major_axis_km": 6715.326511445562,
      "eccentricity": 0.00029309,
      "inclination_deg": 53.0456,
      "raan_deg": 90.1551,
      "arg_perigee_deg": 144.0644,
      "mean_anomaly_deg": 216.0573,
      "mean_motion_rev_day": 15.77618758
    },
    {
      "epoch": "2026-05-02T03:59:07.163232Z",
      "apogee_km": 337.8775575461068,
      "perigee_km": 333.74176640233145,
      "latitude_deg": -1.7404394371017442e-05,
      "longitude_deg": 160.14674099416322,
      "height_km": 338.5516537427842,
      "semi_major_axis_km": 6713.946661974219,
      "eccentricity": 0.000308,
      "inclination_deg": 53.0466,
      "raan_deg": 80.0146,
      "arg_perigee_deg": 152.726,
      "mean_anomaly_deg": 207.3922,
      "mean_motion_rev_day": 15.78105131
    },
    {
      "epoch": "2026-05-03T20:00:01.999008Z",
      "apogee_km": 337.0396619247995,
      "perigee_km": 332.35678807184104,
      "latitude_deg": 44.47824669654544,
      "longitude_deg": 42.65722446481561,
      "height_km": 337.55428129143775,
      "semi_major_axis_km": 6712.83522499832,
      "eccentricity": 0.0003488,
      "inclination_deg": 53.0452,
      "raan_deg": 71.6687,
      "arg_perigee_deg": 163.0228,
      "mean_anomaly_deg": 316.0143,
      "mean_motion_rev_day": 15.78497075
    },
    {
      "epoch": "2026-05-04T22:00:01.998720Z",
      "apogee_km": 336.28756263391915,
      "perigee_km": 331.73269959074605,
      "latitude_deg": 16.544546530860266,
      "longitude_deg": 40.59737149898034,
      "height_km": 331.9979603134758,
      "semi_major_axis_km": 6712.147131112332,
      "eccentricity": 0.0003393,
      "inclination_deg": 53.0455,
      "raan_deg": 66.2444,
      "arg_perigee_deg": 166.2821,
      "mean_anomaly_deg": 352.8764,
      "mean_motion_rev_day": 15.7873981
    }
  ]
}